{
  "norad_id": 48671,
  "name": "STARLINK-2745",
  "history": [
    {
      "epoch": "2026-03-28T22:00:01.999584Z",
      "apogee_km": 477.7420266245663,
      "perigee_km": 475.5362967512583,
      "latitude_deg": -15.142148196161303,
      "longitude_deg": -143.41701131324626,
      "height_km": 481.26718562849186,
      "semi_major_axis_km": 6854.776161687912,
      "eccentricity": 0.00016089,
      "inclination_deg": 53.16,
      "raan_deg": 24.5531,
      "arg_perigee_deg": 101.3168,
      "mean_anomaly_deg": 239.8564,
      "mean_motion_rev_day": 15.29723172
    },
    {
      "epoch": "2026-03-29T04:00:01.999584Z",
      "apogee_km": 476.0922679164605,
      "perigee_km": 475.0600987110529,
      "latitude_deg": -52.404242037306794,
      "longitude_deg": 61.407758731416884,
      "height_km": 494.21321950010764,
      "semi_major_axis_km": 6853.713183313756,
      "eccentricity": 7.53e-05,
      "inclination_deg": 53.1575,
      "raan_deg": 23.3924,
      "arg_perigee_deg": 67.9662,
      "mean_anomaly_deg": 210.9364,
      "mean_motion_rev_day": 15.30079065
    },
    {
      "epoch": "2026-03-30T04:00:01.999584Z",
      "apogee_km": 476.4516527908663,
      "perigee_km": 474.2434600667857,
      "latitude_deg": 24.072731075105818,
      "longitude_deg": 150.61897006116442,
      "height_km": 475.57367674770353,
      "semi_major_axis_km": 6853.484556428826,
      "eccentricity": 0.0001611,
      "inclination_deg": 53.1597,
      "raan_deg": 18.7477,
      "arg_perigee_deg": 84.7957,
      "mean_anomaly_deg": 305.7759,
      "mean_motion_rev_day": 15.30155629
    },
    {
      "epoch": "2026-03-30T06:00:02.000160Z",
      "apogee_km": 476.3331768183416,
      "perigee_km": 474.4183053584811,
      "latitude_deg": 38.00487824543423,
      "longitude_deg": -114.89763709724551,
      "height_km": 477.95596909683405,
      "semi_major_axis_km": 6853.512741088411,
      "eccentricity": 0.0001397,
      "inclination_deg": 53.1596,
      "raan_deg": 18.3607,
      "arg_perigee_deg": 78.1852,
      "mean_anomaly_deg": 51.6952,
      "mean_motion_rev_day": 15.3014619
    },
    {
      "epoch": "2026-03-30T14:00:03.000384Z",
      "apogee_km": 476.16838773628024,
      "perigee_km": 474.51711032554886,
      "latitude_deg": 10.194745202925112,
      "longitude_deg": 151.12517710912923,
      "height_km": 475.29061208172476,
      "semi_major_axis_km": 6853.479749030915,
      "eccentricity": 0.00012047,
      "inclination_deg": 53.1598,
      "raan_deg": 16.8106,
      "arg_perigee_deg": 91.3318,
      "mean_anomaly_deg": 75.8572,
      "mean_motion_rev_day": 15.30157239
    },
    {
      "epoch": "2026-03-30T22:00:00.999936Z",
      "apogee_km": 476.1815897985425,
      "perigee_km": 474.3748924726742,
      "latitude_deg": -19.428334277460543,
      "longitude_deg": 52.19266877288449,
      "height_km": 481.00026182960903,
      "semi_major_axis_km": 6853.415241135608,
      "eccentricity": 0.00013181,
      "inclination_deg": 53.1601,
      "raan_deg": 15.263,
      "arg_perigee_deg": 91.544,
      "mean_anomaly_deg": 112.7677,
      "mean_motion_rev_day": 15.30178843
    },
    {
      "epoch": "2026-03-31T20:00:01.999008Z",
      "apogee_km": 476.07582798225576,
      "perigee_km": 474.38030546474874,
      "latitude_deg": -28.893606123688777,
      "longitude_deg": 86.06998955933746,
      "height_km": 484.5573603987223,
      "semi_major_axis_km": 6853.3650667235015,
      "eccentricity": 0.0001237,
      "inclination_deg": 53.1603,
      "raan_deg": 11.0047,
      "arg_perigee_deg": 80.653,
      "mean_anomaly_deg": 136.1952,
      "mean_motion_rev_day": 15.30195647
    },
    {
      "epoch": "2026-04-01T04:27:43.198560Z",
      "apogee_km": 476.0730691712961,
      "perigee_km": 474.28723178822474,
      "latitude_deg": 9.317342509183793e-07,
      "longitude_deg": 112.88264630726545,
      "height_km": 475.79039589627183,
      "semi_major_axis_km": 6853.31715047976,
      "eccentricity": 0.00013029,
      "inclination_deg": 53.1614,
      "raan_deg": 9.3652,
      "arg_perigee_deg": 71.1808,
      "mean_anomaly_deg": 288.9334,
      "mean_motion_rev_day": 15.30211695
    },
    {
      "epoch": "2026-04-02T21:13:06.275424Z",
      "apogee_km": 476.0063131183424,
      "perigee_km": 474.3025848641237,
      "latitude_deg": 2.133175478672349e-05,
      "longitude_deg": -148.02319676632044,
      "height_km": 476.1222502621323,
      "semi_major_axis_km": 6853.291448991233,
      "eccentricity": 0.0001243,
      "inclination_deg": 53.1619,
      "raan_deg": 1.4793,
      "arg_perigee_deg": 94.6781,
      "mean_anomaly_deg": 265.4362,
      "mean_motion_rev_day": 15.30220303
    },
    {
      "epoch": "2026-04-02T22:47:09.378240Z",
      "apogee_km": 476.1275415854943,
      "perigee_km": 474.1701060884898,
      "latitude_deg": 1.3000540589532864e-05,
      "longitude_deg": -171.90530743773726,
      "height_km": 476.301381441863,
      "semi_major_axis_km": 6853.285823836992,
      "eccentricity": 0.00014281,
      "inclination_deg": 53.1616,
      "raan_deg": 1.1745,
      "arg_perigee_deg": 105.0696,
      "mean_anomaly_deg": 255.0463,
      "mean_motion_rev_day": 15.30222187
    },
    {
      "epoch": "2026-04-03T17:35:49.902144Z",
      "apogee_km": 476.37308479475723,
      "perigee_km": 474.3513025326265,
      "latitude_deg": 3.4997537780090645e-05,
      "longitude_deg": -98.48489152830525,
      "height_km": 476.3806047219622,
      "semi_major_axis_km": 6853.499193663692,
      "eccentricity": 0.0001475,
      "inclination_deg": 53.1613,
      "raan_deg": 357.5363,
      "arg_perigee_deg": 96.8456,
      "mean_anomaly_deg": 263.2713,
      "mean_motion_rev_day": 15.30150727
    },
    {
      "epoch": "2026-04-03T22:17:59.241696Z",
      "apogee_km": 476.6518878194738,
      "perigee_km": 473.9562923699177,
      "latitude_deg": -3.648042302625501e-05,
      "longitude_deg": -170.12638828041096,
      "height_km": 476.74019677870893,
      "semi_major_axis_km": 6853.441090094695,
      "eccentricity": 0.00019666,
      "inclination_deg": 53.1617,
      "raan_deg": 356.6269,
      "arg_perigee_deg": 113.5548,
      "mean_anomaly_deg": 246.5659,
      "mean_motion_rev_day": 15.30170186
    },
    {
      "epoch": "2026-04-05T10:21:11.600928Z",
      "apogee_km": 475.95719095160985,
      "perigee_km": 474.5632099610366,
      "latitude_deg": 1.6046355694827083e-05,
      "longitude_deg": 0.6127904381233937,
      "height_km": 475.99090448748365,
      "semi_major_axis_km": 6853.397200456323,
      "eccentricity": 0.0001017,
      "inclination_deg": 53.1619,
      "raan_deg": 349.6482,
      "arg_perigee_deg": 76.0563,
      "mean_anomaly_deg": 284.0551,
      "mean_motion_rev_day": 15.30184885
    },
    {
      "epoch": "2026-04-06T02:01:43.664160Z",
      "apogee_km": 475.8958281729665,
      "perigee_km": 474.6097210478638,
      "latitude_deg": -4.0618430367094985e-05,
      "longitude_deg": 121.79947728165328,
      "height_km": 476.3765795002728,
      "semi_major_axis_km": 6853.389774610415,
      "eccentricity": 9.383e-05,
      "inclination_deg": 53.161,
      "raan_deg": 346.6123,
      "arg_perigee_deg": 110.4903,
      "mean_anomaly_deg": 249.6198,
      "mean_motion_rev_day": 15.30187372
    },
    {
      "epoch": "2026-04-07T09:22:47.660160Z",
      "apogee_km": 475.7952915442211,
      "perigee_km": 474.6735317115663,
      "latitude_deg": -3.999893475359055e-05,
      "longitude_deg": 4.178979988014583,
      "height_km": 476.13992070633094,
      "semi_major_axis_km": 6853.371411627893,
      "eccentricity": 8.184e-05,
      "inclination_deg": 53.1602,
      "raan_deg": 340.546,
      "arg_perigee_deg": 90.6951,
      "mean_anomaly_deg": 269.4143,
      "mean_motion_rev_day": 15.30193522
    },
    {
      "epoch": "2026-04-07T20:21:10.377792Z",
      "apogee_km": 475.8616077441584,
      "perigee_km": 474.6567806932144,
      "latitude_deg": -3.3704387433378756e-05,
      "longitude_deg": -162.98951762010037,
      "height_km": 476.17263192808554,
      "semi_major_axis_km": 6853.396194218686,
      "eccentricity": 8.79e-05,
      "inclination_deg": 53.1604,
      "raan_deg": 338.4228,
      "arg_perigee_deg": 91.4073,
      "mean_anomaly_deg": 268.7028,
      "mean_motion_rev_day": 15.30185222
    },
    {
      "epoch": "2026-04-08T08:53:35.873376Z",
      "apogee_km": 475.8118507066765,
      "perigee_km": 474.65774289609544,
      "latitude_deg": 1.1298015927173687e-05,
      "longitude_deg": 5.961066156592525,
      "height_km": 476.18289800636,
      "semi_major_axis_km": 6853.371796801385,
      "eccentricity": 8.42e-05,
      "inclination_deg": 53.1599,
      "raan_deg": 335.9946,
      "arg_perigee_deg": 94.9173,
      "mean_anomaly_deg": 265.1924,
      "mean_motion_rev_day": 15.30193393
    },
    {
      "epoch": "2026-04-09T19:22:46.455168Z",
      "apogee_km": 475.991023516488,
      "perigee_km": 474.51891492149934,
      "latitude_deg": 2.125262433776166e-05,
      "longitude_deg": -159.42272241352867,
      "height_km": 476.173932559204,
      "semi_major_axis_km": 6853.391969218993,
      "eccentricity": 0.0001074,
      "inclination_deg": 53.1595,
      "raan_deg": 329.3212,
      "arg_perigee_deg": 91.6103,
      "mean_anomaly_deg": 268.5021,
      "mean_motion_rev_day": 15.30186637
    },
    {
      "epoch": "2026-04-10T07:55:12.011232Z",
      "apogee_km": 475.9838568660143,
      "perigee_km": 474.4898213690876,
      "latitude_deg": 3.845939770561754e-05,
      "longitude_deg": 9.530088208204946,
      "height_km": 476.1635757004401,
      "semi_major_axis_km": 6853.373839117551,
      "eccentricity": 0.000109,
      "inclination_deg": 53.1588,
      "raan_deg": 326.8955,
      "arg_perigee_deg": 92.1906,
      "mean_anomaly_deg": 267.922,
      "mean_motion_rev_day": 15.30192709
    }
  ]
}